[{"OBJECT_NAME":"AMC-15","OBJECT_ID":"2004-041A","EPOCH":"2026-03-05T06:39:07.545888","MEAN_MOTION":1.00272168,"ECCENTRICITY":0.00026105,"INCLINATION":0.0531,"RA_OF_ASC_NODE":298.8874,"ARG_OF_PERICENTER":29.2669,"MEAN_ANOMALY":189.5735,"EPHEMERIS_TYPE":0,"CLASSIFICATION_TYPE":"U","NORAD_CAT_ID":28446,"ELEMENT_SET_NO":999,"REV_AT_EPOCH":7826,"BSTAR":0,"MEAN_MOTION_DOT":-9.7e-7,"MEAN_MOTION_DDOT":0},{"OBJECT_NAME":"NSS-10","OBJECT_ID":"2005-003A","EPOCH":"2026-03-04T10:52:38.525952","MEAN_MOTION":1.00271252,"ECCENTRICITY":0.0003261,"INCLINATION":6.1878,"RA_OF_ASC_NODE":71.7201,"ARG_OF_PERICENTER":277.1631,"MEAN_ANOMALY":299.0193,"EPHEMERIS_TYPE":0,"CLASSIFICATION_TYPE":"U","NORAD_CAT_ID":28526,"ELEMENT_SET_NO":999,"REV_AT_EPOCH":5210,"BSTAR":0,"MEAN_MOTION_DOT":-2.6e-6,"MEAN_MOTION_DDOT":0},{"OBJECT_NAME":"INMARSAT 4-F1","OBJECT_ID":"2005-009A","EPOCH":"2026-03-05T06:17:09.652992","MEAN_MOTION":1.0027283,"ECCENTRICITY":0.00027936,"INCLINATION":5.0291,"RA_OF_ASC_NODE":42.737,"ARG_OF_PERICENTER":327.7056,"MEAN_ANOMALY":64.9523,"EPHEMERIS_TYPE":0,"CLASSIFICATION_TYPE":"U","NORAD_CAT_ID":28628,"ELEMENT_SET_NO":999,"REV_AT_EPOCH":7663,"BSTAR":0,"MEAN_MOTION_DOT":2.6e-7,"MEAN_MOTION_DDOT":0},{"OBJECT_NAME":"DIRECTV 8","OBJECT_ID":"2005-019A","EPOCH":"2026-03-05T04:52:25.277376","MEAN_MOTION":1.00272868,"ECCENTRICITY":0.0003316,"INCLINATION":0.0122,"RA_OF_ASC_NODE":118.5895,"ARG_OF_PERICENTER":240.0936,"MEAN_ANOMALY":118.3,"EPHEMERIS_TYPE":0,"CLASSIFICATION_TYPE":"U","NORAD_CAT_ID":28659,"ELEMENT_SET_NO":999,"REV_AT_EPOCH":7603,"BSTAR":0,"MEAN_MOTION_DOT":-7.0e-8,"MEAN_MOTION_DDOT":0},{"OBJECT_NAME":"GALAXY 28 (G-28)","OBJECT_ID":"2005-022A","EPOCH":"2026-03-05T05:18:37.764288","MEAN_MOTION":1.00271813,"ECCENTRICITY":0.00022885,"INCLINATION":3.0302,"RA_OF_ASC_NODE":80.2386,"ARG_OF_PERICENTER":265.6191,"MEAN_ANOMALY":229.6685,"EPHEMERIS_TYPE":0,"CLASSIFICATION_TYPE":"U","NORAD_CAT_ID":28702,"ELEMENT_SET_NO":999,"REV_AT_EPOCH":5093,"BSTAR":0,"MEAN_MOTION_DOT":-2.08e-6,"MEAN_MOTION_DDOT":0},{"OBJECT_NAME":"THAICOM 4","OBJECT_ID":"2005-028A","EPOCH":"2026-03-05T06:00:18.768672","MEAN_MOTION":1.00269915,"ECCENTRICITY":0.00020559,"INCLINATION":0.0351,"RA_OF_ASC_NODE":265.2243,"ARG_OF_PERICENTER":99.117,"MEAN_ANOMALY":8.2091,"EPHEMERIS_TYPE":0,"CLASSIFICATION_TYPE":"U","NORAD_CAT_ID":28786,"ELEMENT_SET_NO":999,"REV_AT_EPOCH":5120,"BSTAR":0,"MEAN_MOTION_DOT":-3.71e-6,"MEAN_MOTION_DDOT":0},{"OBJECT_NAME":"ANIK F1R","OBJECT_ID":"2005-036A","EPOCH":"2026-03-05T04:55:47.454240","MEAN_MOTION":1.00272287,"ECCENTRICITY":0.00029833,"INCLINATION":4.0469,"RA_OF_ASC_NODE":77.882,"ARG_OF_PERICENTER":302.5935,"MEAN_ANOMALY":109.1208,"EPHEMERIS_TYPE":0,"CLASSIFICATION_TYPE":"U","NORAD_CAT_ID":28868,"ELEMENT_SET_NO":999,"REV_AT_EPOCH":4541,"BSTAR":0,"MEAN_MOTION_DOT":-8.2e-7,"MEAN_MOTION_DDOT":0},{"OBJECT_NAME":"SYRACUSE 3A","OBJECT_ID":"2005-041B","EPOCH":"2026-03-05T04:21:38.547360","MEAN_MOTION":1.00271899,"ECCENTRICITY":0.00036319,"INCLINATION":4.3769,"RA_OF_ASC_NODE":77.1303,"ARG_OF_PERICENTER":270.8533,"MEAN_ANOMALY":286.534,"EPHEMERIS_TYPE":0,"CLASSIFICATION_TYPE":"U","NORAD_CAT_ID":28885,"ELEMENT_SET_NO":999,"REV_AT_EPOCH":7470,"BSTAR":0,"MEAN_MOTION_DOT":1.24e-6,"MEAN_MOTION_DDOT":0},{"OBJECT_NAME":"INMARSAT 4-F2","OBJECT_ID":"2005-044A","EPOCH":"2026-03-05T05:58:38.637984","MEAN_MOTION":1.00271265,"ECCENTRICITY":0.00026699,"INCLINATION":4.9592,"RA_OF_ASC_NODE":43.8067,"ARG_OF_PERICENTER":320.853,"MEAN_ANOMALY":31.4801,"EPHEMERIS_TYPE":0,"CLASSIFICATION_TYPE":"U","NORAD_CAT_ID":28899,"ELEMENT_SET_NO":999,"REV_AT_EPOCH":7447,"BSTAR":0,"MEAN_MOTION_DOT":-2.67e-6,"MEAN_MOTION_DDOT":0},{"OBJECT_NAME":"METEOSAT-9 (MSG-2)","OBJECT_ID":"2005-049B","EPOCH":"2026-03-05T01:48:38.708928","MEAN_MOTION":1.00277671,"ECCENTRICITY":0.00017121,"INCLINATION":9.1265,"RA_OF_ASC_NODE":55.1755,"ARG_OF_PERICENTER":222.7266,"MEAN_ANOMALY":317.8188,"EPHEMERIS_TYPE":0,"CLASSIFICATION_TYPE":"U","NORAD_CAT_ID":28912,"ELEMENT_SET_NO":999,"REV_AT_EPOCH":595,"BSTAR":0,"MEAN_MOTION_DOT":1.18e-6,"MEAN_MOTION_DDOT":0},{"OBJECT_NAME":"EUTELSAT 174A","OBJECT_ID":"2005-052A","EPOCH":"2026-03-05T06:16:02.260128","MEAN_MOTION":1.00274037,"ECCENTRICITY":0.00062809,"INCLINATION":3.9555,"RA_OF_ASC_NODE":77.8175,"ARG_OF_PERICENTER":270.4077,"MEAN_ANOMALY":82.7601,"EPHEMERIS_TYPE":0,"CLASSIFICATION_TYPE":"U","NORAD_CAT_ID":28924,"ELEMENT_SET_NO":999,"REV_AT_EPOCH":5128,"BSTAR":0,"MEAN_MOTION_DOT":2.0e-8,"MEAN_MOTION_DDOT":0},{"OBJECT_NAME":"ECHOSTAR 10","OBJECT_ID":"2006-003A","EPOCH":"2026-03-05T06:37:37.689024","MEAN_MOTION":1.00271704,"ECCENTRICITY":0.00020493,"INCLINATION":0.058,"RA_OF_ASC_NODE":291.3994,"ARG_OF_PERICENTER":16.4878,"MEAN_ANOMALY":204.3256,"EPHEMERIS_TYPE":0,"CLASSIFICATION_TYPE":"U","NORAD_CAT_ID":28935,"ELEMENT_SET_NO":999,"REV_AT_EPOCH":7342,"BSTAR":0,"MEAN_MOTION_DOT":-6.4e-7,"MEAN_MOTION_DDOT":0},{"OBJECT_NAME":"SPAINSAT","OBJECT_ID":"2006-007A","EPOCH":"2026-03-04T15:11:07.734624","MEAN_MOTION":1.00272413,"ECCENTRICITY":0.0004228,"INCLINATION":0.2929,"RA_OF_ASC_NODE":89.196,"ARG_OF_PERICENTER":259.0112,"MEAN_ANOMALY":11.7513,"EPHEMERIS_TYPE":0,"CLASSIFICATION_TYPE":"U","NORAD_CAT_ID":28945,"ELEMENT_SET_NO":999,"REV_AT_EPOCH":7317,"BSTAR":0,"MEAN_MOTION_DOT":-2.28e-6,"MEAN_MOTION_DDOT":0},{"OBJECT_NAME":"JCSAT-5A","OBJECT_ID":"2006-010A","EPOCH":"2026-03-05T05:28:38.665920","MEAN_MOTION":1.00273415,"ECCENTRICITY":0.00015035,"INCLINATION":0.8397,"RA_OF_ASC_NODE":85.5941,"ARG_OF_PERICENTER":313.4314,"MEAN_ANOMALY":338.155,"EPHEMERIS_TYPE":0,"CLASSIFICATION_TYPE":"U","NORAD_CAT_ID":29045,"ELEMENT_SET_NO":999,"REV_AT_EPOCH":7272,"BSTAR":0,"MEAN_MOTION_DOT":-3.36e-6,"MEAN_MOTION_DDOT":0},{"OBJECT_NAME":"ASTRA 1KR","OBJECT_ID":"2006-012A","EPOCH":"2026-03-05T05:31:44.009472","MEAN_MOTION":1.00272696,"ECCENTRICITY":0.00033428,"INCLINATION":0.2059,"RA_OF_ASC_NODE":81.8591,"ARG_OF_PERICENTER":247.3587,"MEAN_ANOMALY":295.6752,"EPHEMERIS_TYPE":0,"CLASSIFICATION_TYPE":"U","NORAD_CAT_ID":29055,"ELEMENT_SET_NO":999,"REV_AT_EPOCH":4465,"BSTAR":0,"MEAN_MOTION_DOT":1.1e-6,"MEAN_MOTION_DDOT":0},{"OBJECT_NAME":"GALAXY 16 (G-16)","OBJECT_ID":"2006-023A","EPOCH":"2026-03-05T04:58:09.725664","MEAN_MOTION":1.00272852,"ECCENTRICITY":0.00025421,"INCLINATION":0.0424,"RA_OF_ASC_NODE":232.7228,"ARG_OF_PERICENTER":115.0303,"MEAN_ANOMALY":150.7068,"EPHEMERIS_TYPE":0,"CLASSIFICATION_TYPE":"U","NORAD_CAT_ID":29236,"ELEMENT_SET_NO":999,"REV_AT_EPOCH":7193,"BSTAR":0,"MEAN_MOTION_DOT":-1.35e-6,"MEAN_MOTION_DDOT":0},{"OBJECT_NAME":"EUTELSAT 33F","OBJECT_ID":"2006-032A","EPOCH":"2026-03-05T04:49:38.668800","MEAN_MOTION":1.00269659,"ECCENTRICITY":0.00035435,"INCLINATION":1.393,"RA_OF_ASC_NODE":83.4688,"ARG_OF_PERICENTER":259.4921,"MEAN_ANOMALY":285.4745,"EPHEMERIS_TYPE":0,"CLASSIFICATION_TYPE":"U","NORAD_CAT_ID":29270,"ELEMENT_SET_NO":999,"REV_AT_EPOCH":4626,"BSTAR":0,"MEAN_MOTION_DOT":1.47e-6,"MEAN_MOTION_DDOT":0}]
