AMC-15                  
1 28446U 04041A   26064.27717067 -.00000097  00000+0  00000+0 0  9993
2 28446   0.0531 298.8874 0002610  29.2669 189.5735  1.00272168 78262
NSS-10                  
1 28526U 05003A   26063.45322368 -.00000260  00000+0  00000+0 0  9998
2 28526   6.1878  71.7201 0003261 277.1631 299.0193  1.00271252 52103
INMARSAT 4-F1           
1 28628U 05009A   26064.26191728  .00000026  00000+0  00000+0 0  9990
2 28628   5.0291  42.7370 0002793 327.7056  64.9523  1.00272830 76633
DIRECTV 8               
1 28659U 05019A   26064.20307034 -.00000007  00000+0  00000+0 0  9998
2 28659   0.0122 118.5895 0003316 240.0936 118.3000  1.00272868 76034
GALAXY 28 (G-28)        
1 28702U 05022A   26064.22127042 -.00000208  00000+0  00000+0 0  9995
2 28702   3.0302  80.2386 0002288 265.6191 229.6685  1.00271813 50934
THAICOM 4               
1 28786U 05028A   26064.25021723 -.00000371  00000+0  00000+0 0  9996
2 28786   0.0351 265.2243 0002055  99.1170   8.2091  1.00269915 51206
ANIK F1R                
1 28868U 05036A   26064.20541035 -.00000082  00000+0  00000+0 0  9993
2 28868   4.0469  77.8820 0002983 302.5935 109.1208  1.00272287 45412
SYRACUSE 3A             
1 28885U 05041B   26064.18169615  .00000124  00000+0  00000+0 0  9991
2 28885   4.3769  77.1303 0003631 270.8533 286.5340  1.00271899 74707
INMARSAT 4-F2           
1 28899U 05044A   26064.24905831 -.00000267  00000+0  00000+0 0  9993
2 28899   4.9592  43.8067 0002669 320.8530  31.4801  1.00271265 74472
METEOSAT-9 (MSG-2)      
1 28912U 05049B   26064.07544802  .00000118  00000+0  00000+0 0  9996
2 28912   9.1265  55.1755 0001712 222.7266 317.8188  1.00277671  5959
EUTELSAT 174A           
1 28924U 05052A   26064.26113727  .00000002  00000+0  00000+0 0  9994
2 28924   3.9555  77.8175 0006280 270.4077  82.7601  1.00274037 51286
ECHOSTAR 10             
1 28935U 06003A   26064.27613066 -.00000064  00000+0  00000+0 0  9994
2 28935   0.0580 291.3994 0002049  16.4878 204.3256  1.00271704 73428
SPAINSAT                
1 28945U 06007A   26063.63272841 -.00000228  00000+0  00000+0 0  9992
2 28945   0.2929  89.1960 0004228 259.0112  11.7513  1.00272413 73177
JCSAT-5A                
1 29045U 06010A   26064.22822530 -.00000336  00000+0  00000+0 0  9990
2 29045   0.8397  85.5941 0001503 313.4314 338.1550  1.00273415 72725
ASTRA 1KR               
1 29055U 06012A   26064.23037048  .00000110  00000+0  00000+0 0  9995
2 29055   0.2059  81.8591 0003342 247.3587 295.6752  1.00272696 44657
GALAXY 16 (G-16)        
1 29236U 06023A   26064.20705701 -.00000135  00000+0  00000+0 0  9991
2 29236   0.0424 232.7228 0002542 115.0303 150.7068  1.00272852 71930
EUTELSAT 33F            
1 29270U 06032A   26064.20114200  .00000147  00000+0  00000+0 0  9999
2 29270   1.3930  83.4688 0003543 259.4921 285.4745  1.00269659 46263
